NORAD_CAT_ID,OBJECT_NAME,OBJECT_TYPE,EPOCH,MEAN_MOTION,ECCENTRICITY,INCLINATION,RA_OF_ASC_NODE,ARG_OF_PERICENTER,MEAN_ANOMALY,BSTAR,MEAN_MOTION_DOT,MEAN_MOTION_DDOT,TLE_LINE0,TLE_LINE1,TLE_LINE2,SEMIMAJOR_AXIS,PERIOD,APOGEE,PERIGEE,DECAYED
53399.0,STARLINK-4528,PAYLOAD,2024-01-26 04:55:11,15.08839292,0.0001638,53.2197,356.4337,104.4609,255.6565,1.7015e-05,-1.7e-07,0.0,0 STARLINK-4528,1 53399U 22097M   24026.20499286 -.00000017  00000-0  17015-4 0  9990,2 53399  53.2197 356.4337 0001638 104.4609 255.6565 15.08839292 81258,6917.883,95.438,540.881,538.614,0.0
53399.0,STARLINK-4528,PAYLOAD,2024-01-27 03:10:35,15.08829771,0.0001812,53.2199,352.2728,119.7868,240.3305,0.00012197,1.653e-05,0.0,0 STARLINK-4528,1 53399U 22097M   24027.13235785  .00001653  00000-0  12197-3 0  9996,2 53399  53.2199 352.2728 0001812 119.7868 240.3305 15.08829771 81397,6917.912,95.438,541.03,538.523,0.0
53399.0,STARLINK-4528,PAYLOAD,2024-01-27 07:56:46,15.08768624,0.0002162,53.2195,351.3732,107.8291,252.2937,0.0010521,0.00016463,0.0,0 STARLINK-4528,1 53399U 22097M   24027.33109497  .00016463  00000-0  10521-2 0  9991,2 53399  53.2195 351.3732 0002162 107.8291 252.2937 15.08768624 81421,6918.099,95.442,541.459,538.468,0.0
53399.0,STARLINK-4528,PAYLOAD,2024-01-28 04:36:46,15.08839077,0.0001685,53.2193,347.512,71.2359,288.8816,2.7641e-05,1.52e-06,0.0,0 STARLINK-4528,1 53399U 22097M   24028.19219999  .00000152  00000-0  27641-4 0  9996,2 53399  53.2193 347.5120 0001685  71.2359 288.8816 15.08839077 81551,6917.883,95.438,540.914,538.583,0.0
53399.0,STARLINK-4528,PAYLOAD,2024-01-28 06:12:08,15.08844717,0.0001421,53.2187,347.2113,85.8396,274.2758,6.9666e-05,8.21e-06,0.0,0 STARLINK-4528,1 53399U 22097M   24028.25843406  .00000821  00000-0  69666-4 0  9995,2 53399  53.2187 347.2113 0001421  85.8396 274.2758 15.08844717 81565,6917.866,95.437,540.714,538.748,0.0
53399.0,STARLINK-4528,PAYLOAD,2024-01-29 02:52:09,15.08840635,0.0001599,53.2188,343.3443,80.2473,279.87,6.3311e-05,7.2e-06,0.0,0 STARLINK-4528,1 53399U 22097M   24029.11955827  .00000720  00000-0  63311-4 0  9991,2 53399  53.2188 343.3443 0001599  80.2473 279.8700 15.08840635 81697,6917.878,95.438,540.85,538.637,0.0
53399.0,STARLINK-4528,PAYLOAD,2024-01-29 06:02:55,15.08850636,0.0001552,53.2192,342.75,104.4098,255.7066,0.00015472,2.176e-05,0.0,0 STARLINK-4528,1 53399U 22097M   24029.25202892  .00002176  00000-0  15472-3 0  9994,2 53399  53.2192 342.7500 0001552 104.4098 255.7066 15.08850636 81713,6917.848,95.437,540.787,538.639,0.0
53399.0,STARLINK-4528,PAYLOAD,2024-01-30 02:42:56,15.08843969,0.0001593,53.2184,338.8852,88.183,271.9345,2.7272e-05,1.46e-06,0.0,0 STARLINK-4528,1 53399U 22097M   24030.11315690  .00000146  00000-0  27272-4 0  9999,2 53399  53.2184 338.8852 0001593  88.1830 271.9345 15.08843969 81842,6917.868,95.437,540.835,538.631,0.0
53399.0,STARLINK-4528,PAYLOAD,2024-01-31 02:33:43,15.08836921,0.0001584,53.2189,334.4289,83.385,276.7322,0.00016665,2.365e-05,0.0,0 STARLINK-4528,1 53399U 22097M   24031.10675569  .00002365  00000-0  16665-3 0  9991,2 53399  53.2189 334.4289 0001584  83.3850 276.7322 15.08836921 82481,6917.89,95.438,540.851,538.659,0.0
53399.0,STARLINK-4528,PAYLOAD,2024-02-01 02:24:31,15.08835967,0.000184,53.2199,329.9801,119.4213,240.6963,-3.4243e-05,-8.33e-06,0.0,0 STARLINK-4528,1 53399U 22097M   24032.10036283 -.00000833  00000-0 -34243-4 0  9999,2 53399  53.2199 329.9801 0001840 119.4213 240.6963 15.08835967 82143,6917.893,95.438,541.031,538.485,0.0
53399.0,STARLINK-4528,PAYLOAD,2024-02-01 19:53:45,15.0884318,0.0001368,53.2185,326.6986,96.9287,263.1861,-2.4086e-05,-6.71e-06,0.0,0 STARLINK-4528,1 53399U 22097M   24032.82899973 -.00000671  00000-0 -24086-4 0  9995,2 53399  53.2185 326.6986 0001368  96.9287 263.1861 15.08843180 82740,6917.871,95.437,540.682,538.789,0.0
53399.0,STARLINK-4528,PAYLOAD,2024-02-02 00:39:54,15.08850965,0.0001348,53.2186,325.8079,85.3769,274.7377,-6.4143e-05,-1.309e-05,0.0,0 STARLINK-4528,1 53399U 22097M   24033.02771686 -.00001309  00000-0 -64143-4 0  9995,2 53399  53.2186 325.8079 0001348  85.3769 274.7377 15.08850965 82288,6917.847,95.437,540.644,538.779,0.0
53399.0,STARLINK-4528,PAYLOAD,2024-02-02 19:44:33,15.08835123,0.0001336,53.2185,322.2405,78.5935,281.5207,4.7151e-05,4.62e-06,0.0,0 STARLINK-4528,1 53399U 22097M   24033.82260427  .00000462  00000-0  47151-4 0  9996,2 53399  53.2185 322.2405 0001336  78.5935 281.5207 15.08835123 82408,6917.895,95.438,540.685,538.836,0.0
53399.0,STARLINK-4528,PAYLOAD,2024-02-03 02:06:05,15.08833906,0.0001311,53.2185,321.0501,86.3399,273.7743,3.3655e-05,2.48e-06,0.0,0 STARLINK-4528,1 53399U 22097M   24034.08756571  .00000248  00000-0  33655-4 0  9991,2 53399  53.2185 321.0501 0001311  86.3399 273.7743 15.08833906 82939,6917.899,95.438,540.671,538.857,0.0
53399.0,STARLINK-4528,PAYLOAD,2024-02-03 22:46:06,15.08834386,0.0001348,53.218,317.1833,86.9698,273.1449,-2.0702e-05,-6.17e-06,0.0,0 STARLINK-4528,1 53399U 22097M   24034.94869035 -.00000617  00000-0 -20702-4 0  9997,2 53399  53.2180 317.1833 0001348  86.9698 273.1449 15.08834386 83061,6917.898,95.438,540.695,538.83,0.0
53399.0,STARLINK-4528,PAYLOAD,2024-02-04 00:21:29,15.08836431,0.0001364,53.2176,316.8856,87.7631,272.3518,-2.553e-06,-3.29e-06,0.0,0 STARLINK-4528,1 53399U 22097M   24035.01492850 -.00000329  00000-0 -25530-5 0  9998,2 53399  53.2176 316.8856 0001364  87.7631 272.3518 15.08836431 82588,6917.891,95.438,540.7,538.813,0.0
53399.0,STARLINK-4528,PAYLOAD,2024-02-04 05:07:39,15.08817946,0.0001487,53.2179,315.9902,105.4634,254.6522,0.00040631,6.181e-05,0.0,0 STARLINK-4528,1 53399U 22097M   24035.21364995  .00006181  00000-0  40631-3 0  9995,2 53399  53.2179 315.9902 0001487 105.4634 254.6522 15.08817946 83107,6917.948,95.439,540.841,538.784,0.0
53399.0,STARLINK-4528,PAYLOAD,2024-02-04 22:36:53,15.08838275,0.0001453,53.218,312.7184,97.1704,262.9453,6.8502e-05,8.02e-06,0.0,0 STARLINK-4528,1 53399U 22097M   24035.94228533  .00000802  00000-0  68502-4 0  9994,2 53399  53.2180 312.7184 0001453  97.1704 262.9453 15.08838275 83219,6917.886,95.438,540.756,538.745,0.0
53399.0,STARLINK-4528,PAYLOAD,2024-02-05 03:23:02,15.08841577,0.0001632,53.2183,311.8258,109.2344,250.8825,8.3919e-05,1.048e-05,0.0,0 STARLINK-4528,1 53399U 22097M   24036.14100256  .00001048  00000-0  83919-4 0  9990,2 53399  53.2183 311.8258 0001632 109.2344 250.8825 15.08841577 82754,6917.876,95.437,540.87,538.612,0.0
53399.0,STARLINK-4528,PAYLOAD,2024-02-05 11:19:58,15.08841249,0.0001414,53.2179,310.3411,95.2138,264.9016,0.00010981,1.46e-05,0.0,0 STARLINK-4528,1 53399U 22097M   24036.47220248  .00001460  00000-0  10981-3 0  9996,2 53399  53.2179 310.3411 0001414  95.2138 264.9016 15.08841249 83291,6917.877,95.437,540.72,538.763,0.0
53399.0,STARLINK-4528,PAYLOAD,2024-02-05 22:27:40,15.08844955,0.0001647,53.2175,308.2572,100.9603,259.1574,4.6252e-05,4.48e-06,0.0,0 STARLINK-4528,1 53399U 22097M   24036.93588192  .00000448  00000-0  46252-4 0  9998,2 53399  53.2175 308.2572 0001647 100.9603 259.1574 15.08844955 83360,6917.865,95.437,540.87,538.591,0.0
53399.0,STARLINK-4528,PAYLOAD,2024-02-06 03:13:48,15.08854858,0.0001599,53.2183,307.3655,108.1347,251.9819,0.00012706,1.736e-05,0.0,0 STARLINK-4528,1 53399U 22097M   24037.13459181  .00001736  00000-0  12706-3 0  9993,2 53399  53.2183 307.3655 0001599 108.1347 251.9819 15.08854858 82906,6917.835,95.437,540.806,538.594,0.0
53399.0,STARLINK-4528,PAYLOAD,2024-02-06 22:18:27,15.08845241,0.0001813,53.218,303.7966,117.4034,242.7143,-9.7926e-06,-4.44e-06,0.0,0 STARLINK-4528,1 53399U 22097M   24037.92948003 -.00000444  00000-0 -97926-5 0  9992,2 53399  53.2180 303.7966 0001813 117.4034 242.7143 15.08845241 83515,6917.864,95.437,540.984,538.475,0.0
53399.0,STARLINK-4528,PAYLOAD,2024-02-06 23:53:50,15.08844572,0.00017,53.2183,303.5022,81.8358,278.2827,5.3735e-06,-2.03e-06,0.0,0 STARLINK-4528,1 53399U 22097M   24037.99572238 -.00000203  00000-0  53735-5 0  9994,2 53399  53.2183 303.5022 0001700  81.8358 278.2827 15.08844572 83033,6917.866,95.437,540.907,538.555,0.0
53399.0,STARLINK-4528,PAYLOAD,2024-02-07 11:01:32,15.08844856,0.0001604,53.2182,301.4223,86.4804,273.6372,-9.7676e-06,-4.44e-06,0.0,0 STARLINK-4528,1 53399U 22097M   24038.45940106 -.00000444  00000-0 -97676-5 0  9999,2 53399  53.2182 301.4223 0001604  86.4804 273.6372 15.08844856 83592,6917.866,95.437,540.84,538.621,0.0
53399.0,STARLINK-4528,PAYLOAD,2024-02-07 22:09:14,15.08834086,0.0001477,53.218,299.3383,100.66,259.4558,-1.6949e-05,-5.58e-06,0.0,0 STARLINK-4528,1 53399U 22097M   24038.92308752 -.00000558  00000-0 -16949-4 0  9995,2 53399  53.2180 299.3383 0001477 100.6600 259.4558 15.08834086 83663,6917.898,95.438,540.785,538.742,0.0
53399.0,STARLINK-4528,PAYLOAD,2024-02-07 23:44:37,15.08842573,0.0001639,53.218,299.0376,110.7794,249.3374,-8.4564e-05,-1.634e-05,0.0,0 STARLINK-4528,1 53399U 22097M   24038.98932345 -.00001634  00000-0 -84564-4 0  9996,2 53399  53.2180 299.0376 0001639 110.7794 249.3374 15.08842573 83189,6917.873,95.437,540.871,538.604,0.0
53399.0,STARLINK-4528,PAYLOAD,2024-02-08 22:00:01,15.0883818,0.0001816,53.2174,294.8732,121.8159,238.301,4.7316e-06,-2.13e-06,0.0,0 STARLINK-4528,1 53399U 22097M   24039.91668529 -.00000213  00000-0  47316-5 0  9996,2 53399  53.2174 294.8732 0001816 121.8159 238.3010 15.08838180 83810,6917.886,95.438,541.007,538.495,0.0
53399.0,STARLINK-4528,PAYLOAD,2024-02-09 02:46:10,15.08850373,0.0001942,53.2176,293.9805,129.9133,230.203,-0.00010543,-1.966e-05,0.0,0 STARLINK-4528,1 53399U 22097M   24040.11540088 -.00001966  00000-0 -10543-3 0  9996,2 53399  53.2176 293.9805 0001942 129.9133 230.2030 15.08850373 83354,6917.849,95.437,541.057,538.37,0.0
53399.0,STARLINK-4528,PAYLOAD,2024-02-09 20:15:25,15.08833114,0.000154,53.2168,290.7094,118.3996,241.7151,9.9744e-05,1.3e-05,0.0,0 STARLINK-4528,1 53399U 22097M   24040.84404843  .00001300  00000-0  99744-4 0  9995,2 53399  53.2168 290.7094 0001540 118.3996 241.7151 15.08833114 83460,6917.901,95.438,540.832,538.701,0.0
